satname,norad_id,inclination_deg,eccentricity,mean_motion_rev_per_day,perigee_km,apogee_km,l1,l2
STARLINK-1451,45668,53.0486,0.000277,15.07639497,541.4980110985416,545.3325510622608,1 45668U 20035M   26025.36127570  .00024429  00000+0  15988-2 0  9998,2 45668  53.0486 261.3242 0002770 125.2651 234.8598 15.07639497312203
STARLINK-1452,45669,53.0331,0.0004065,15.37208519,451.59102825122955,457.14585517534124,1 45669U 20035N   26025.56067159  .00100553  00000+0  26935-2 0  9994,2 45669  53.0331 226.0743 0004065 174.1149 185.9902 15.37208519312712
STARLINK-1453,45670,53.0487,0.0007908,15.42619169,432.99216485699617,443.77317236487124,1 45670U 20035P   26025.18706690  .00061551  00000+0  13896-2 0  9990,2 45670  53.0487 221.3977 0007908 149.9890 210.1569 15.42619169312639
STARLINK-1454,45671,53.0625,0.0001202,15.36696045,455.06595938357714,456.70885885152893,1 45671U 20035Q   26025.91668981  .01063141  00000+0  26804-1 0  9992,2 45671  53.0625 256.9816 0001202  86.8002 355.2479 15.36696045  5771
STARLINK-1456,45673,53.0532,0.0007242,15.40553491,439.53373845390433,449.41560920227676,1 45673U 20035S   26025.91668981  .00089475  00000+0  21518-2 0  9999,2 45673  53.0532 250.2997 0007242 136.9554  43.4883 15.40553491  5920
STARLINK-1457,45674,53.05,0.0002291,15.63733436,375.3362621779097,378.43141272563116,1 45674U 20035T   26024.60901727  .00080239  00000+0  84060-3 0  9994,2 45674  53.0500 241.0230 0002291  82.0085 278.1188 15.63733436312394
STARLINK-1458,45675,53.0578,0.0001272,15.27354037,482.85296502025085,484.5986229150376,1 45675U 20035U   26025.91668981  .01051652  00000+0  35490-1 0  9991,2 45675  53.0578 257.4693 0001272  87.8869  42.7456 15.27354037  5832
STARLINK-1460,45676,53.064,0.0002236,15.06432565,545.5632670803625,548.6602383225709,1 45676U 20035V   26025.37671483  .00006548  00000+0  45769-3 0  9998,2 45676  53.0640 261.0562 0002236 266.6470  93.4263 15.06432565312161
STARLINK-1392,45677,53.0522,0.0001557,15.06436142,546.0225306044003,548.1790496522462,1 45677U 20035W   26025.65316134  .00006757  00000+0  47162-3 0  9990,2 45677  53.0522 259.8157 0001557  94.3104 265.8063 15.06436142312248
STARLINK-1394,45679,53.0535,0.0006022,15.41117432,438.7025993555253,446.9177481315828,1 45679U 20035Y   26025.59559521  .00110724  00000+0  26047-2 0  9992,2 45679  53.0535 241.7591 0006022 135.0367 225.1126 15.41117432312495
STARLINK-1402,45685,53.0528,0.0011089,15.37306355,446.5023089778497,461.654796630859,1 45685U 20035AE  26025.27670605  .00096835  00000+0  25833-2 0  9999,2 45685  53.0528 229.0150 0011089 119.0410 241.1705 15.37306355312652
STARLINK-1404,45686,53.1233,0.0001845,15.21937717,498.72727987789585,501.26531106392576,1 45686U 20035AF  26025.91668981  .01815581  00000+0  71586-1 0  9998,2 45686  53.1233 248.1837 0001845  99.6038  15.9884 15.21937717  5838
STARLINK-1413,45689,53.1261,0.0001491,15.22677053,496.74446535259085,498.7948607195085,1 45689U 20035AJ  26025.91668981  .01742642  00000+0  67495-1 0  9992,2 45689  53.1261 248.1314 0001491  91.4393 311.0628 15.22677053  5733
STARLINK-1417,45693,53.0505,0.0008451,15.09895047,530.6768333525515,542.3639873074926,1 45693U 20035AN  26025.61041362  .00014432  00000+0  89624-3 0  9990,2 45693  53.0505 249.1636 0008451 105.6899 254.5024 15.09895047312381
STARLINK-1420,45695,53.0554,0.0001211,15.35347839,459.05942759018126,460.71559712707494,1 45695U 20035AQ  26025.91668981  .01596535  00000+0  41705-1 0  9993,2 45695  53.0554 227.0785 0001211  65.3687 151.9200 15.35347839  5836
STARLINK-1422,45696,53.1181,0.0002057,15.21358198,500.32768208198377,503.1580646618886,1 45696U 20035AR  26025.91668981  .00088451  00000+0  38652-2 0  9994,2 45696  53.1181 247.9447 0002057  77.3686  29.7046 15.21358198  5836
STARLINK-1351,45697,53.0553,0.0001805,15.33208908,465.0102972233608,467.4811193810574,1 45697U 20035AS  26025.91668981  .01457711  00000+0  40448-1 0  9990,2 45697  53.0553 226.0970 0001805 122.9873 320.6474 15.33208908  5848
STARLINK-1398,45699,53.0411,0.0002891,15.73630808,346.5855215479878,350.4748805236268,1 45699U 20035AU  26025.91668981  .00113743  00000+0  78898-3 0  9997,2 45699  53.0411 154.9189 0002891 248.4294 162.4591 15.73630808  5902
STARLINK-1400,45700,53.055,0.0001352,15.35811673,457.58634999078913,459.4349795193375,1 45700U 20035AV  26025.91668981  .01649097  00000+0  42314-1 0  9999,2 45700  53.0550 227.0275 0001352 107.5337 352.8915 15.35811673  5826
STARLINK-1403,45701,53.0533,0.000143,15.06392797,546.2433061831343,548.223962184511,1 45701U 20035AW  26025.54906060  .00000074  00000+0  23865-4 0  9990,2 45701  53.0533 230.2845 0001430  88.8745 271.2408 15.06392797312649
STARLINK-1407,45703,53.0374,0.0007968,15.52116916,405.1371460050259,415.95559182172747,1 45703U 20035AY  26025.72716609  .00131757  00000+0  21133-2 0  9997,2 45703  53.0374 163.8339 0007968 313.8326  46.2023 15.52116916313609
STARLINK-1411,45706,53.0465,9.1e-05,15.54435609,403.1765850352167,404.4108964300294,1 45706U 20035BB  26025.84398160  .00087921  00000+0  13077-2 0  9992,2 45706  53.0465 189.5490 0000910 268.6011  91.4894 15.54435609313247
STARLINK-1423,45710,53.0544,9.25e-05,15.38256791,450.6322825520947,451.89572173749184,1 45710U 20035BF  26025.91668981  .00195612  00000+0  49928-2 0  9997,2 45710  53.0544 226.6739 0000925  83.0004 260.6332 15.38256791  5741
STARLINK-1433,45711,53.0553,0.0001316,15.40601277,443.4357545498615,445.2314288095922,1 45711U 20035BG  26025.91668981  .01290244  00000+0  28578-1 0  9993,2 45711  53.0553 226.4065 0001316  79.2521 140.6963 15.40601277  5684
STARLINK-1434,45712,53.0515,0.000195,15.21610925,499.639630133478,502.32248617615824,1 45712U 20035BH  26025.55941756  .00015115  00000+0  67409-3 0  9997,2 45712  53.0515 219.1017 0001950  70.8330 289.2877 15.21610925312817
STARLINK-1465,45731,53.0554,0.0001341,15.31240226,471.19228228044267,473.0295187673628,1 45731U 20038B   26025.91668981  .01689974  00000+0  49925-1 0  9999,2 45731  53.0554  67.0155 0001341 102.3514 345.3166 15.31240226  5833
STARLINK-1471,45735,53.051,0.0003175,15.45277181,428.4019898878287,432.7255148655877,1 45735U 20038F   26025.17686926  .00033777  00000+0  70415-3 0  9993,2 45735  53.0510 349.9948 0003175  89.1973 270.9396 15.45277181310796
STARLINK-1474,45738,53.0264,0.0005479,15.91649519,294.00885093218403,301.32419643343565,1 45738U 20038J   26025.91668981  .00330326  52193-4  99842-3 0  9999,2 45738  53.0264 282.3953 0005479 162.0212 210.3088 15.91649519  6109
STARLINK-1480,45741,53.0537,0.0007166,15.40423265,439.9698276539593,449.74854578876875,1 45741U 20038M   26025.50900748  .00136025  00000+0  32605-2 0  9996,2 45741  53.0537  62.7714 0007166  27.0386 333.0989 15.40423265309806
STARLINK-1500,45744,53.0387,0.0003998,15.32247766,466.3700913490393,471.84514814699014,1 45744U 20038Q   26025.33804115  .00032311  00000+0  10305-2 0  9997,2 45744  53.0387  35.7148 0003998  86.2574 273.8884 15.32247766310165
STARLINK-1504,45746,53.026,0.0004518,15.50119704,413.3064930980936,419.4460152745769,1 45746U 20038S   26025.59590913  .00041339  00000+0  72612-3 0  9995,2 45746  53.0260 349.6092 0004518  71.2906 288.8592 15.50119704310829
STARLINK-1506,45747,53.0784,0.0004555,15.24746402,488.4179042271844,494.6761863924612,1 45747U 20038T   26025.28878485  .00011970  00000+0  48976-3 0  9999,2 45747  53.0784  42.9051 0004555  93.1753 266.9766 15.24746402310061
STARLINK-1464,45751,53.0534,0.000121,15.31897473,469.32275882780414,470.9800446210211,1 45751U 20038X   26025.91668981  .01634175  00000+0  47464-1 0  9990,2 45751  53.0534  47.1543 0001210 109.5007 354.3568 15.31897473  5832
STARLINK-1477,45754,53.0526,0.0001202,15.1149413,530.8120933765622,532.4732044041557,1 45754U 20038AA  26025.36617762  .00041632  00000+0  24341-2 0  9992,2 45754  53.0526  49.4639 0001202 254.9485 105.1373 15.11494130309972
STARLINK-1478,45755,53.055,0.0002595,15.45545263,428.0097422541503,431.54304930656053,1 45755U 20038AB  26025.32062747  .00133861  00000+0  27041-2 0  9992,2 45755  53.0550  46.1692 0002595  68.8866 291.2417 15.45545263310007
STARLINK-1484,45756,53.0067,0.0004336,15.80570812,325.91722867459157,331.73350643973845,1 45756U 20038AC  26025.91668981  .00146789  00000+0  74448-3 0  9997,2 45756  53.0067 274.5113 0004336 143.1170 342.5288 15.80570812  5987
STARLINK-1493,45759,53.0535,0.0001593,15.25918011,486.93642499719044,489.1239858688414,1 45759U 20038AF  26025.91668981  .01808580  00000+0  63409-1 0  9998,2 45759  53.0535  47.6137 0001593 101.8548   8.0547 15.25918011  5839
STARLINK-1494,45760,53.0528,0.000184,15.65979978,369.1800920539272,371.6635617022175,1 45760U 20038AG  26025.64604674  .00093019  00000+0  88921-3 0  9999,2 45760  53.0528   4.3282 0001840  98.4425 261.6798 15.65979978310639
STARLINK-1502,45764,53.054,0.0001221,15.20151489,504.54278491764035,506.2237405658025,1 45764U 20038AL  26025.91668981  .01129465  00000+0  47534-1 0  9993,2 45764  53.0540  47.9686 0001221  90.6367  19.1915 15.20151489  5830
STARLINK-1470,45772,53.047,8.45e-05,15.24243125,492.4785081130176,493.639740258006,1 45772U 20038AU  26025.18636716  .00087007  00000+0  34924-2 0  9996,2 45772  53.0470  15.6211 0000845 141.9689 218.1368 15.24243125310436
STARLINK-1482,45773,53.0635,6.07e-05,15.087958,539.4585704392848,540.2984175202537,1 45773U 20038AV  26025.91668981  .01240883  00000+0  72212-1 0  9992,2 45773  53.0635  28.6191 0000607 126.3578 195.9478 15.08795800  5834
STARLINK-1496,45780,53.0553,0.0006062,15.39939686,442.15053843658734,450.4244707059288,1 45780U 20038BC  26025.27946987  .00130152  00000+0  31734-2 0  9995,2 45780  53.0553  24.3051 0006062  50.0978 310.0558 15.39939686310303
STARLINK-1497,45781,53.0276,0.0007684,15.93905917,286.2398319477461,296.48952212501536,1 45781U 20038BD  26025.91668981  .00443513  88781-4  11865-2 0  9990,2 45781  53.0276 294.6839 0007684 132.2450 340.0252 15.93905917  6037
